<?xml version="1.0" encoding="UTF-8"?>
<ndm xmlns:xsi="http://www.w3.org/2001/XMLSchema-instance" xsi:noNamespaceSchemaLocation="https://sanaregistry.org/r/ndmxml_unqualified/ndmxml-2.0.0-master-2.0.xsd">
<omm id="CCSDS_OMM_VERS" version="2.0">
<header><CREATION_DATE/><ORIGINATOR/></header><body><segment><metadata><OBJECT_NAME>ONEWEB-0504</OBJECT_NAME><OBJECT_ID>2022-138K</OBJECT_ID><CENTER_NAME>EARTH</CENTER_NAME><REF_FRAME>TEME</REF_FRAME><TIME_SYSTEM>UTC</TIME_SYSTEM><MEAN_ELEMENT_THEORY>SGP4</MEAN_ELEMENT_THEORY></metadata><data><meanElements><EPOCH>2025-02-17T23:05:36.318624</EPOCH><MEAN_MOTION>13.19726406</MEAN_MOTION><ECCENTRICITY>.0001837</ECCENTRICITY><INCLINATION>87.9162</INCLINATION><RA_OF_ASC_NODE>41.2075</RA_OF_ASC_NODE><ARG_OF_PERICENTER>98.8263</ARG_OF_PERICENTER><MEAN_ANOMALY>261.3077</MEAN_ANOMALY></meanElements><tleParameters><EPHEMERIS_TYPE>0</EPHEMERIS_TYPE><CLASSIFICATION_TYPE>U</CLASSIFICATION_TYPE><NORAD_CAT_ID>54122</NORAD_CAT_ID><ELEMENT_SET_NO>999</ELEMENT_SET_NO><REV_AT_EPOCH>11296</REV_AT_EPOCH><BSTAR>.20312E-4</BSTAR><MEAN_MOTION_DOT>.21E-6</MEAN_MOTION_DOT><MEAN_MOTION_DDOT>0</MEAN_MOTION_DDOT></tleParameters></data></segment></body></omm>
<omm id="CCSDS_OMM_VERS" version="2.0">
<header><CREATION_DATE/><ORIGINATOR/></header><body><segment><metadata><OBJECT_NAME>ONEWEB-0505</OBJECT_NAME><OBJECT_ID>2022-138L</OBJECT_ID><CENTER_NAME>EARTH</CENTER_NAME><REF_FRAME>TEME</REF_FRAME><TIME_SYSTEM>UTC</TIME_SYSTEM><MEAN_ELEMENT_THEORY>SGP4</MEAN_ELEMENT_THEORY></metadata><data><meanElements><EPOCH>2025-02-17T23:01:04.065312</EPOCH><MEAN_MOTION>13.19725094</MEAN_MOTION><ECCENTRICITY>.0002151</ECCENTRICITY><INCLINATION>87.9161</INCLINATION><RA_OF_ASC_NODE>41.1997</RA_OF_ASC_NODE><ARG_OF_PERICENTER>103.4514</ARG_OF_PERICENTER><MEAN_ANOMALY>256.6858</MEAN_ANOMALY></meanElements><tleParameters><EPHEMERIS_TYPE>0</EPHEMERIS_TYPE><CLASSIFICATION_TYPE>U</CLASSIFICATION_TYPE><NORAD_CAT_ID>54123</NORAD_CAT_ID><ELEMENT_SET_NO>999</ELEMENT_SET_NO><REV_AT_EPOCH>11294</REV_AT_EPOCH><BSTAR>.31503E-4</BSTAR><MEAN_MOTION_DOT>.26E-6</MEAN_MOTION_DOT><MEAN_MOTION_DDOT>0</MEAN_MOTION_DDOT></tleParameters></data></segment></body></omm>
<omm id="CCSDS_OMM_VERS" version="2.0">
<header><CREATION_DATE/><ORIGINATOR/></header><body><segment><metadata><OBJECT_NAME>ONEWEB-0506</OBJECT_NAME><OBJECT_ID>2022-138M</OBJECT_ID><CENTER_NAME>EARTH</CENTER_NAME><REF_FRAME>TEME</REF_FRAME><TIME_SYSTEM>UTC</TIME_SYSTEM><MEAN_ELEMENT_THEORY>SGP4</MEAN_ELEMENT_THEORY></metadata><data><meanElements><EPOCH>2025-02-17T22:24:38.815776</EPOCH><MEAN_MOTION>13.19727918</MEAN_MOTION><ECCENTRICITY>.0002003</ECCENTRICITY><INCLINATION>87.9159</INCLINATION><RA_OF_ASC_NODE>41.2017</RA_OF_ASC_NODE><ARG_OF_PERICENTER>93.0314</ARG_OF_PERICENTER><MEAN_ANOMALY>267.1048</MEAN_ANOMALY></meanElements><tleParameters><EPHEMERIS_TYPE>0</EPHEMERIS_TYPE><CLASSIFICATION_TYPE>U</CLASSIFICATION_TYPE><NORAD_CAT_ID>54124</NORAD_CAT_ID><ELEMENT_SET_NO>999</ELEMENT_SET_NO><REV_AT_EPOCH>11293</REV_AT_EPOCH><BSTAR>.32603E-3</BSTAR><MEAN_MOTION_DOT>.143E-5</MEAN_MOTION_DOT><MEAN_MOTION_DDOT>0</MEAN_MOTION_DDOT></tleParameters></data></segment></body></omm>
<omm id="CCSDS_OMM_VERS" version="2.0">
<header><CREATION_DATE/><ORIGINATOR/></header><body><segment><metadata><OBJECT_NAME>ONEWEB-0507</OBJECT_NAME><OBJECT_ID>2022-138N</OBJECT_ID><CENTER_NAME>EARTH</CENTER_NAME><REF_FRAME>TEME</REF_FRAME><TIME_SYSTEM>UTC</TIME_SYSTEM><MEAN_ELEMENT_THEORY>SGP4</MEAN_ELEMENT_THEORY></metadata><data><meanElements><EPOCH>2025-02-17T22:54:14.574240</EPOCH><MEAN_MOTION>13.19725675</MEAN_MOTION><ECCENTRICITY>.0002072</ECCENTRICITY><INCLINATION>87.9167</INCLINATION><RA_OF_ASC_NODE>41.2396</RA_OF_ASC_NODE><ARG_OF_PERICENTER>91.6860</ARG_OF_PERICENTER><MEAN_ANOMALY>268.4510</MEAN_ANOMALY></meanElements><tleParameters><EPHEMERIS_TYPE>0</EPHEMERIS_TYPE><CLASSIFICATION_TYPE>U</CLASSIFICATION_TYPE><NORAD_CAT_ID>54125</NORAD_CAT_ID><ELEMENT_SET_NO>999</ELEMENT_SET_NO><REV_AT_EPOCH>11298</REV_AT_EPOCH><BSTAR>.15921E-3</BSTAR><MEAN_MOTION_DOT>.77E-6</MEAN_MOTION_DOT><MEAN_MOTION_DDOT>0</MEAN_MOTION_DDOT></tleParameters></data></segment></body></omm>
<omm id="CCSDS_OMM_VERS" version="2.0">
<header><CREATION_DATE/><ORIGINATOR/></header><body><segment><metadata><OBJECT_NAME>ONEWEB-0508</OBJECT_NAME><OBJECT_ID>2022-138P</OBJECT_ID><CENTER_NAME>EARTH</CENTER_NAME><REF_FRAME>TEME</REF_FRAME><TIME_SYSTEM>UTC</TIME_SYSTEM><MEAN_ELEMENT_THEORY>SGP4</MEAN_ELEMENT_THEORY></metadata><data><meanElements><EPOCH>2025-02-17T22:49:41.222784</EPOCH><MEAN_MOTION>13.19726781</MEAN_MOTION><ECCENTRICITY>.0002296</ECCENTRICITY><INCLINATION>87.9165</INCLINATION><RA_OF_ASC_NODE>41.2267</RA_OF_ASC_NODE><ARG_OF_PERICENTER>94.2008</ARG_OF_PERICENTER><MEAN_ANOMALY>265.9387</MEAN_ANOMALY></meanElements><tleParameters><EPHEMERIS_TYPE>0</EPHEMERIS_TYPE><CLASSIFICATION_TYPE>U</CLASSIFICATION_TYPE><NORAD_CAT_ID>54126</NORAD_CAT_ID><ELEMENT_SET_NO>999</ELEMENT_SET_NO><REV_AT_EPOCH>11296</REV_AT_EPOCH><BSTAR>.29978E-4</BSTAR><MEAN_MOTION_DOT>.25E-6</MEAN_MOTION_DOT><MEAN_MOTION_DDOT>0</MEAN_MOTION_DDOT></tleParameters></data></segment></body></omm>
<omm id="CCSDS_OMM_VERS" version="2.0">
<header><CREATION_DATE/><ORIGINATOR/></header><body><segment><metadata><OBJECT_NAME>ONEWEB-0509</OBJECT_NAME><OBJECT_ID>2022-138Q</OBJECT_ID><CENTER_NAME>EARTH</CENTER_NAME><REF_FRAME>TEME</REF_FRAME><TIME_SYSTEM>UTC</TIME_SYSTEM><MEAN_ELEMENT_THEORY>SGP4</MEAN_ELEMENT_THEORY></metadata><data><meanElements><EPOCH>2025-02-17T22:13:17.522400</EPOCH><MEAN_MOTION>13.19725732</MEAN_MOTION><ECCENTRICITY>.0001956</ECCENTRICITY><INCLINATION>87.9160</INCLINATION><RA_OF_ASC_NODE>41.2020</RA_OF_ASC_NODE><ARG_OF_PERICENTER>91.3524</ARG_OF_PERICENTER><MEAN_ANOMALY>268.7832</MEAN_ANOMALY></meanElements><tleParameters><EPHEMERIS_TYPE>0</EPHEMERIS_TYPE><CLASSIFICATION_TYPE>U</CLASSIFICATION_TYPE><NORAD_CAT_ID>54127</NORAD_CAT_ID><ELEMENT_SET_NO>999</ELEMENT_SET_NO><REV_AT_EPOCH>11293</REV_AT_EPOCH><BSTAR>.22579E-3</BSTAR><MEAN_MOTION_DOT>.103E-5</MEAN_MOTION_DOT><MEAN_MOTION_DDOT>0</MEAN_MOTION_DDOT></tleParameters></data></segment></body></omm>
<omm id="CCSDS_OMM_VERS" version="2.0">
<header><CREATION_DATE/><ORIGINATOR/></header><body><segment><metadata><OBJECT_NAME>ONEWEB-0510</OBJECT_NAME><OBJECT_ID>2022-138R</OBJECT_ID><CENTER_NAME>EARTH</CENTER_NAME><REF_FRAME>TEME</REF_FRAME><TIME_SYSTEM>UTC</TIME_SYSTEM><MEAN_ELEMENT_THEORY>SGP4</MEAN_ELEMENT_THEORY></metadata><data><meanElements><EPOCH>2025-02-17T21:27:29.331072</EPOCH><MEAN_MOTION>13.20771923</MEAN_MOTION><ECCENTRICITY>.0001931</ECCENTRICITY><INCLINATION>87.9299</INCLINATION><RA_OF_ASC_NODE>10.7957</RA_OF_ASC_NODE><ARG_OF_PERICENTER>75.0568</ARG_OF_PERICENTER><MEAN_ANOMALY>285.0779</MEAN_ANOMALY></meanElements><tleParameters><EPHEMERIS_TYPE>0</EPHEMERIS_TYPE><CLASSIFICATION_TYPE>U</CLASSIFICATION_TYPE><NORAD_CAT_ID>54128</NORAD_CAT_ID><ELEMENT_SET_NO>999</ELEMENT_SET_NO><REV_AT_EPOCH>11535</REV_AT_EPOCH><BSTAR>.13286E-3</BSTAR><MEAN_MOTION_DOT>.67E-6</MEAN_MOTION_DOT><MEAN_MOTION_DDOT>0</MEAN_MOTION_DDOT></tleParameters></data></segment></body></omm>
<omm id="CCSDS_OMM_VERS" version="2.0">
<header><CREATION_DATE/><ORIGINATOR/></header><body><segment><metadata><OBJECT_NAME>ONEWEB-0511</OBJECT_NAME><OBJECT_ID>2022-138S</OBJECT_ID><CENTER_NAME>EARTH</CENTER_NAME><REF_FRAME>TEME</REF_FRAME><TIME_SYSTEM>UTC</TIME_SYSTEM><MEAN_ELEMENT_THEORY>SGP4</MEAN_ELEMENT_THEORY></metadata><data><meanElements><EPOCH>2025-02-17T22:08:44.920896</EPOCH><MEAN_MOTION>13.19725931</MEAN_MOTION><ECCENTRICITY>.0001602</ECCENTRICITY><INCLINATION>87.9160</INCLINATION><RA_OF_ASC_NODE>41.2075</RA_OF_ASC_NODE><ARG_OF_PERICENTER>95.6573</ARG_OF_PERICENTER><MEAN_ANOMALY>264.4742</MEAN_ANOMALY></meanElements><tleParameters><EPHEMERIS_TYPE>0</EPHEMERIS_TYPE><CLASSIFICATION_TYPE>U</CLASSIFICATION_TYPE><NORAD_CAT_ID>54129</NORAD_CAT_ID><ELEMENT_SET_NO>999</ELEMENT_SET_NO><REV_AT_EPOCH>11296</REV_AT_EPOCH><BSTAR>.23962E-3</BSTAR><MEAN_MOTION_DOT>.109E-5</MEAN_MOTION_DOT><MEAN_MOTION_DDOT>0</MEAN_MOTION_DDOT></tleParameters></data></segment></body></omm>

</ndm>
