ONEWEB-0504             
1 54122U 22138K   25048.96222591  .00000021  00000+0  20312-4 0  9999
2 54122  87.9162  41.2075 0001837  98.8263 261.3077 13.19726406112967
ONEWEB-0505             
1 54123U 22138L   25048.95907483  .00000026  00000+0  31503-4 0  9998
2 54123  87.9161  41.1997 0002151 103.4514 256.6858 13.19725094112945
ONEWEB-0506             
1 54124U 22138M   25048.93378259  .00000143  00000+0  32603-3 0  9991
2 54124  87.9159  41.2017 0002003  93.0314 267.1048 13.19727918112939
ONEWEB-0507             
1 54125U 22138N   25048.95433535  .00000077  00000+0  15921-3 0  9993
2 54125  87.9167  41.2396 0002072  91.6860 268.4510 13.19725675112986
ONEWEB-0508             
1 54126U 22138P   25048.95117156  .00000025  00000+0  29978-4 0  9993
2 54126  87.9165  41.2267 0002296  94.2008 265.9387 13.19726781112964
ONEWEB-0509             
1 54127U 22138Q   25048.92589725  .00000103  00000+0  22579-3 0  9992
2 54127  87.9160  41.2020 0001956  91.3524 268.7832 13.19725732112938
ONEWEB-0510             
1 54128U 22138R   25048.89408948  .00000067  00000+0  13286-3 0  9990
2 54128  87.9299  10.7957 0001931  75.0568 285.0779 13.20771923115358
ONEWEB-0511             
1 54129U 22138S   25048.92274214  .00000109  00000+0  23962-3 0  9991
2 54129  87.9160  41.2075 0001602  95.6573 264.4742 13.19725931112966
